IRS-P2                  
1 23323U 94068A   23199.63699581  .00000161  00000+0  90406-4 0  9991
2 23323  99.0091 212.9317 0001080  86.1917 273.9384 14.24044045493728
SHIYAN 5 (SY-5)         
1 39455U 13068A   23200.04096264  .00000355  00000+0  11985-3 0  9991
2 39455  98.1962 102.4155 0013313 301.3228  58.6659 14.42368518508195
OCEANSAT-2              
1 35931U 09051A   23200.10424604 -.00000109  00000+0 -48865-4 0  9990
2 35931  98.3117 275.3751 0015989   0.3021 359.8153 13.99366314730492
WNISAT-1                
1 39423U 13066H   23200.07677150  .00000827  00000+0  16980-3 0  9990
2 39423  97.7000  56.2339 0172007 337.6496  21.7269 14.54257948512070
No GP data foundSENTINEL-1A             
1 39634U 14016A   23200.07059073  .00000263  00000+0  65546-4 0  9995
2 39634  98.1830 206.9635 0001379  90.1259 270.0099 14.59199911494860
NUSAT-2 (BATATA)        
1 41558U 16033C   23200.07930207  .00105931  00000+0  90519-3 0  9996
2 41558  97.4184 317.7987 0003436 343.8104  16.3048 15.69148967398962
QUBESCOUT-S1            
1 39443U 13066AD  23199.86277644  .00019508  00000+0  12093-2 0  9996
2 39443  97.4094 212.6848 0010353 298.9240  61.0950 15.09740245525522
RESURS O1-N4            
1 25394U 98043A   23199.47652334  .00000033  00000+0  33526-4 0  9993
2 25394  98.7925 146.3690 0001317  21.3423 338.7810 14.24511846300718
JASON-2 (OSTM)          
1 33105U 08032A   23197.60430560 -.00000086  00000+0 -94481-4 0  9996
2 33105  66.0401 133.5925 0008235 269.0825 262.9616 12.87661189706463
NIGERIASAT-1            
1 27941U 03042C   23199.46095732  .00002325  00000+0  28090-3 0  9995
2 27941  97.9631   7.8995 0047568 174.6962 185.4766 14.83933734 65635
QUIKSCAT                
1 25789U 99034A   23199.24938619  .00000470  00000+0  12682-3 0  9994
2 25789  98.4204  72.4657 0097076 302.6124  56.5728 14.49977070258060
DUBAISAT-2              
1 39419U 13066D   23200.04749511  .00003500  00000+0  30705-3 0  9995
2 39419  97.4112 216.6932 0013394  30.5906 329.6095 14.97171560526484
No GP data foundMAROC-TUBSAT            
1 27004U 01056D   23199.97628692 -.00000025  00000+0  23997-4 0  9999
2 27004  99.6849 346.5598 0019727 354.8137  79.2616 13.70179437 80435
CBERS 1 (ZY 1A)         
1 25940U 99057A   23199.54030202  .00000253  00000+0  10312-3 0  9999
2 25940  98.7588 167.6708 0003835 255.7577 104.3182 14.35913661244670
SDS-4                   
1 38339U 12025C   23200.10841737  .00001106  00000+0  18545-3 0  9997
2 38339  98.2025 273.4233 0008668  93.0298 267.1900 14.71743712599338
BUGSAT-1 (TITA)         
1 40014U 14033E   23199.45191447  .00004182  00000+0  34022-3 0  9997
2 40014  98.1311 219.8154 0032547 165.9024 194.3114 14.99736184495410
STSAT-3                 
1 39422U 13066G   23200.10541691  .00002630  00000+0  26101-3 0  9993
2 39422  97.4859 189.7092 0022899  41.5042 318.7912 14.92372507524952
CARTOSAT-2C             
1 41599U 16040A   23200.09536225  .00005969  00000+0  28570-3 0  9991
2 41599  97.4344 259.8585 0012841 232.2050 127.8022 15.19267179392153
OKEAN-2                 
1 20510U 90018A   23199.50934455  .00003770  00000+0  27809-3 0  9990
2 20510  82.5133 194.5186 0012085  33.5414 119.8392 15.02976153814546
AEROCUBE 4.5A           
1 38767U 12048K   23199.66009753  .00012171  00000+0  81733-3 0  9992
2 38767  64.6653 301.5483 0118830 144.7134 216.1924 15.01464525210115
DICE-Y                  
1 37852U 11061C   23199.55329785  .00029989  00000+0  83270-3 0  9991
2 37852 101.7090 187.6356 0101220 289.9942  69.0406 15.31808325642137
SICH-2                  
1 37794U 11044G   23200.10766579  .00000776  00000+0  16064-3 0  9997
2 37794  97.8013 219.9115 0011430 310.5833  93.7721 14.62767379635892
FIREBIRD 4              
1 40378U 15003C   23199.88980137  .00570961  13459-3  15416-2 0  9991
2 40378  99.0683 169.3980 0028205 104.5003 255.9398 15.93565633469674
No GP data foundSPOT 2                  
1 20436U 90005A   23200.16067344  .00002065  00000+0  31798-3 0  9990
2 20436  98.6618 273.3345 0141240 183.5389 176.4829 14.68195115758885
MIDORI II (ADEOS-II)    
1 27597U 02056A   23199.42786260  .00000368  00000+0  16631-3 0  9998
2 27597  98.6493 143.4102 0000679  34.4252 325.6973 14.27945937 72452
SEEDS II (CO-66)        
1 32791U 08021J   23198.88787358  .00006140  00000+0  53672-3 0  9996
2 32791  97.6577 169.4888 0010300 317.4218  42.6204 14.97081951826334
IRS-P5 (CARTOSAT-1)     
1 28649U 05017A   23200.12030683  .00001656  00000+0  19837-3 0  9990
2 28649  97.6646 251.6690 0001723  46.9585 313.1774 14.85386021985611
HYSIS                   
1 43719U 18096A   23200.11252035  .00001651  00000+0  23219-3 0  9996
2 43719  97.9111 265.6070 0001725  17.4515 342.6755 14.78676291250176
GOMX-1                  
1 39430U 13066Q   23200.08256796  .00001538  00000+0  27375-3 0  9998
2 39430  97.7763  89.3642 0143868 232.1617 126.6495 14.61966748514199
COMPASS-1               
1 32787U 08021E   23199.50448526  .00008749  00000+0  67530-3 0  9997
2 32787  97.5811 175.2764 0009436 264.2187  95.7962 15.01763701827404
TANSAT                  
1 41898U 16081A   23200.09342416  .00000744  00000+0  17293-3 0  9991
2 41898  98.4230 160.6097 0021125 359.4651   0.6520 14.57765571349468
RESURS P1               
1 39186U 13030A   23200.12091666  .00016603  00000+0  33074-3 0  9997
2 39186  97.0665 250.0922 0011594   3.1478 356.9843 15.46893576563517
CARTOSAT-2B             
1 36795U 10035A   23200.13449284  .00001107  00000+0  15774-3 0  9996
2 36795  97.9088 259.9523 0013889  45.3795 314.8546 14.78700721702681
HODOYOSHI-4             
1 40011U 14033B   23200.08260135  .00001321  00000+0  16884-3 0  9995
2 40011  97.6231  60.8418 0025055 215.6345 144.3198 14.82785128490836
EGYPTSAT 1              
1 31117U 07012A   23199.80624659  .00001377  00000+0  21421-3 0  9997
2 31117  97.9194 149.8079 0004061 301.6981  58.3832 14.74567564873164
SDS-1                   
1 33497U 09002F   23199.71957518  .00000757  00000+0  13029-3 0  9990
2 33497  98.3260  65.5788 0003204  77.6381 282.5184 14.71532892776840
FUNCUBE-1 (AO-73)       
1 39444U 13066AE  23199.95971343  .00004110  00000+0  45383-3 0  9996
2 39444  97.6729 163.0947 0053239 166.1248 194.1446 14.86942314520958
No GP data foundARIRANG-1 (KOMPSAT-1)   
1 26032U 99070A   23199.83042681  .00001529  00000+0  25717-3 0  9995
2 26032  98.1738 337.7788 0005445  62.4838 297.6921 14.71037898262322
No GP data foundRESOURCESAT-2A          
1 41877U 16074A   23200.12271567  .00000197  00000+0  10976-3 0  9995
2 41877  98.6815 274.7104 0000286 144.9860 215.1336 14.21637179343124
CP3                     
1 31129U 07012N   23200.10908288  .00001546  00000+0  32066-3 0  9994
2 31129  98.3166 146.9201 0092923 135.8006 225.0665 14.58976184863211
CUBESAT XI-V            
1 28895U 05043F   23199.33747162  .00001819  00000+0  34204-3 0  9995
2 28895  98.1576 331.1668 0015581 338.3945  21.6599 14.65775832945607
No GP data foundBRITE-PL1 (LEM)         
1 39431U 13066R   23199.98091582  .00000966  00000+0  21069-3 0  9993
2 39431  97.6795  22.9409 0201042  79.1110 283.2636 14.48040705509938
MONITOR-E & SL-19 R/B   
1 27840U 03031A   23199.43444860  .00000118  00000+0  50351-4 0  9992
2 27840  98.4809 164.4117 0096663 282.9409  76.0997 14.39173283 52892
SPOT 4                  
1 25260U 98017A   23200.18527330  .00000516  00000+0  13244-3 0  9994
2 25260  98.2648 292.7678 0011689 270.0897  89.8961 14.54236220324800
KOMPSAT-3A              
1 40536U 15014A   23200.12728205  .00007169  00000+0  38304-3 0  9996
2 40536  97.5732 143.9544 0004370  36.4543 323.6986 15.15401336459017
No GP data foundVNREDSAT 1              
1 39160U 13021B   23200.12550220  .00000646  00000+0  13505-3 0  9992
2 39160  98.0390 271.2824 0001521  90.7951 269.3425 14.62952177544611
AEROCUBE 4.5B           
1 38768U 12048L   23199.63198899  .00013051  00000+0  73844-3 0  9992
2 38768  64.6623 244.6857 0097493 137.8231 223.0444 15.09323366210712
KAZEOSAT 2              
1 40010U 14033A   23200.08771695  .00000679  00000+0  91665-4 0  9998
2 40010  97.6689  75.0829 0011783 215.3069 144.7366 14.82071409491189
FIREBIRD 3              
1 40377U 15003B   23200.12891099  .00630414  16772-3  16153-2 0  9998
2 40377  99.0657 169.4086 0027661 105.3347 255.0982 15.94575746469708
VRSS-2                  
1 42954U 17060A   23200.14931490  .00001080  00000+0  15870-3 0  9998
2 42954  97.8031 262.8725 0017558 328.6817  31.3347 14.77357705311133
SHIYAN 2 (SY-2)         
1 28479U 04046A   23200.06299004  .00001282  00000+0  26245-3 0  9995
2 28479  98.0865 214.4636 0010539  22.5260 337.6402 14.62422923994124
ZACUBE-1 (TSHEPISOSAT)  
1 39417U 13066B   23199.83161526  .00003389  00000+0  39131-3 0  9998
2 39417  97.6869 160.3969 0054551 181.5731 178.5321 14.85194663521890
HAIYANG-1A              
1 27430U 02024A   23199.84052866  .00000432  00000+0  17877-3 0  9998
2 27430  98.5838 147.6091 0008436 339.8151  20.2698 14.31578182105641
GAOFEN 8                
1 40701U 15030A   23200.08509229  .00012741  00000+0  53675-3 0  9996
2 40701  97.6140 343.9746 0005458  56.5717 303.6041 15.23472501448777
SPOT 1                  
1 16613U 86019A   23199.44371200  .00000791  00000+0  13440-3 0  9997
2 16613  98.7466  50.0085 0139816 348.9819  10.8329 14.66270882654908
LANDSAT 8               
1 39084U 13008A   23200.12808716  .00000493  00000+0  11956-3 0  9996
2 39084  98.2252 269.6711 0001362  97.1915 262.9438 14.57115434554766
PUCP-SAT 1              
1 39442U 13066AC  23198.77261391  .00007069  00000+0  61718-3 0  9994
2 39442  97.4758 190.0075 0028279  15.6162 344.5926 14.96794188523847
RITE TARGET 1           
1 28454U 02056F   23200.12216430  .00000907  00000+0  34324-3 0  9996
2 28454  98.6133 152.5867 0011238 111.2864 248.9521 14.33608477 51489
ZIYUAN 1-02C (ZY 1-02C) 
1 38038U 11079A   23200.10289451  .00000297  00000+0  11682-3 0  9995
2 38038  98.5416 267.0944 0005683 235.6622 235.3067 14.36267606606400
